{"type": "FeatureCollection", "features": [ {"type": "Feature", "properties": {"norad_id": 29999, "name": "FENGYUN 1C DEB", "group": "fengyun-1c-debris", "lat": 74.41799031628906, "lon": -48.55180876176569, "alt_km": 683.116454924806, "timestamp": "2025-12-26T08:37:54.853387+00:00", "meta": {"OBJECT_NAME": "FENGYUN 1C DEB", "OBJECT_ID": "1999-025LZ", "EPOCH": "2025-12-25T22:23:00.400128", "MEAN_MOTION": 14.20154619, "ECCENTRICITY": 0.01897909, "INCLINATION": 98.5776, "RA_OF_ASC_NODE": 343.8016, "ARG_OF_PERICENTER": 88.5542, "MEAN_ANOMALY": 326.877, "EPHEMERIS_TYPE": 0, "CLASSIFICATION_TYPE": "U", "NORAD_CAT_ID": 29999, "ELEMENT_SET_NO": 999, "REV_AT_EPOCH": 97911, "BSTAR": 0.00032400592, "MEAN_MOTION_DOT": 7.86e-06, "MEAN_MOTION_DDOT": 0}, "tle": {"line1": "1 29999U 99025LZ  25359.93264352  .00000786  00000+0  32401-3 0  9994", "line2": "2 29999  98.5776 343.8016 0189790  88.5542 326.8770 14.20154619979116"}}, "geometry": {"type": "Point", "coordinates": [-48.55180876176569, 74.41799031628906]}}, {"type": "Feature", "properties": {"norad_id": 30001, "name": "FENGYUN 1C DEB", "group": "fengyun-1c-debris", "lat": -33.03831136931907, "lon": -109.88865686636541, "alt_km": 792.0465281575616, "timestamp": "2025-12-26T08:37:54.853397+00:00", "meta": {"OBJECT_NAME": "FENGYUN 1C DEB", "OBJECT_ID": "1999-025MA", "EPOCH": "2025-12-25T17:19:27.212736", "MEAN_MOTION": 14.38774223, "ECCENTRICITY": 0.00360582, "INCLINATION": 98.9582, "RA_OF_ASC_NODE": 75.334, "ARG_OF_PERICENTER": 59.6959, "MEAN_ANOMALY": 91.7536, "EPHEMERIS_TYPE": 0, "CLASSIFICATION_TYPE": "U", "NORAD_CAT_ID": 30001, "ELEMENT_SET_NO": 999, "REV_AT_EPOCH": 97618, "BSTAR": 0.0025863958, "MEAN_MOTION_DOT": 7.968e-05, "MEAN_MOTION_DDOT": 0}, "tle": {"line1": "1 30001U 99025MA  25359.72184274  .00007968  00000+0  25864-2 0  9994", "line2": "2 30001  98.9582  75.3340 0036058  59.6959  91.7536 14.38774223976187"}}, "geometry": {"type": "Point", "coordinates": [-109.88865686636541, -33.03831136931907]}}, {"type": "Feature", "properties": {"norad_id": 30003, "name": "FENGYUN 1C DEB", "group": "fengyun-1c-debris", "lat": -56.23030198864187, "lon": -9.918280558255624, "alt_km": 1032.436353094954, "timestamp": "2025-12-26T08:37:54.853408+00:00", "meta": {"OBJECT_NAME": "FENGYUN 1C DEB", "OBJECT_ID": "1999-025MC", "EPOCH": "2025-12-25T16:25:34.328640", "MEAN_MOTION": 13.85635284, "ECCENTRICITY": 0.01436183, "INCLINATION": 99.5785, "RA_OF_ASC_NODE": 334.765, "ARG_OF_PERICENTER": 85.6895, "MEAN_ANOMALY": 91.4611, "EPHEMERIS_TYPE": 0, "CLASSIFICATION_TYPE": "U", "NORAD_CAT_ID": 30003, "ELEMENT_SET_NO": 999, "REV_AT_EPOCH": 95667, "BSTAR": 0.00034258539, "MEAN_MOTION_DOT": 3.79e-06, "MEAN_MOTION_DDOT": 0}, "tle": {"line1": "1 30003U 99025MC  25359.68442510  .00000379  00000+0  34259-3 0  9999", "line2": "2 30003  99.5785 334.7650 0143618  85.6895  91.4611 13.85635284956673"}}, "geometry": {"type": "Point", "coordinates": [-9.918280558255624, -56.23030198864187]}}, {"type": "Feature", "properties": {"norad_id": 30004, "name": "FENGYUN 1C DEB", "group": "fengyun-1c-debris", "lat": -57.8835273171051, "lon": -13.017664336544497, "alt_km": 830.517999936359, "timestamp": "2025-12-26T08:37:54.853418+00:00", "meta": {"OBJECT_NAME": "FENGYUN 1C DEB", "OBJECT_ID": "1999-025MD", "EPOCH": "2025-12-25T11:25:36.327360", "MEAN_MOTION": 14.17095255, "ECCENTRICITY": 0.0038437, "INCLINATION": 99.2236, "RA_OF_ASC_NODE": 181.0692, "ARG_OF_PERICENTER": 306.7437, "MEAN_ANOMALY": 107.7243, "EPHEMERIS_TYPE": 0, "CLASSIFICATION_TYPE": "U", "NORAD_CAT_ID": 30004, "ELEMENT_SET_NO": 999, "REV_AT_EPOCH": 97487, "BSTAR": 0.00071323, "MEAN_MOTION_DOT": 1.398e-05, "MEAN_MOTION_DDOT": 0}, "tle": {"line1": "1 30004U 99025MD  25359.47611490  .00001398  00000+0  71323-3 0  9997", "line2": "2 30004  99.2236 181.0692 0038437 306.7437 107.7243 14.17095255974870"}}, "geometry": {"type": "Point", "coordinates": [-13.017664336544497, -57.8835273171051]}}, {"type": "Feature", "properties": {"norad_id": 30005, "name": "FENGYUN 1C DEB", "group": "fengyun-1c-debris", "lat": 38.858877825145164, "lon": 149.07739408393843, "alt_km": 1013.9586083811091, "timestamp": "2025-12-26T08:37:54.853428+00:00", "meta": {"OBJECT_NAME": "FENGYUN 1C DEB", "OBJECT_ID": "1999-025ME", "EPOCH": "2025-12-24T20:27:41.265216", "MEAN_MOTION": 13.52248613, "ECCENTRICITY": 0.03472589, "INCLINATION": 99.3042, "RA_OF_ASC_NODE": 320.0713, "ARG_OF_PERICENTER": 62.757, "MEAN_ANOMALY": 300.8498, "EPHEMERIS_TYPE": 0, "CLASSIFICATION_TYPE": "U", "NORAD_CAT_ID": 30005, "ELEMENT_SET_NO": 999, "REV_AT_EPOCH": 93110, "BSTAR": 0.0014566307, "MEAN_MOTION_DOT": 1.365e-05, "MEAN_MOTION_DDOT": 0}, "tle": {"line1": "1 30005U 99025ME  25358.85256094  .00001365  00000+0  14566-2 0  9993", "line2": "2 30005  99.3042 320.0713 0347258  62.7570 300.8498 13.52248613931100"}}, "geometry": {"type": "Point", "coordinates": [149.07739408393843, 38.858877825145164]}}, {"type": "Feature", "properties": {"norad_id": 30007, "name": "FENGYUN 1C DEB", "group": "fengyun-1c-debris", "lat": -12.571462568764945, "lon": -95.59587316962605, "alt_km": 765.0587064207948, "timestamp": "2025-12-26T08:37:54.853439+00:00", "meta": {"OBJECT_NAME": "FENGYUN 1C DEB", "OBJECT_ID": "1999-025MG", "EPOCH": "2025-12-25T17:38:02.795712", "MEAN_MOTION": 14.25523305, "ECCENTRICITY": 0.0065202, "INCLINATION": 99.1779, "RA_OF_ASC_NODE": 261.6843, "ARG_OF_PERICENTER": 338.4427, "MEAN_ANOMALY": 43.6279, "EPHEMERIS_TYPE": 0, "CLASSIFICATION_TYPE": "U", "NORAD_CAT_ID": 30007, "ELEMENT_SET_NO": 999, "REV_AT_EPOCH": 97541, "BSTAR": 0.0019643276, "MEAN_MOTION_DOT": 4.703e-05, "MEAN_MOTION_DDOT": 0}, "tle": {"line1": "1 30007U 99025MG  25359.73475458  .00004703  00000+0  19643-2 0  9990", "line2": "2 30007  99.1779 261.6843 0065202 338.4427  43.6279 14.25523305975417"}}, "geometry": {"type": "Point", "coordinates": [-95.59587316962605, -12.571462568764945]}}, {"type": "Feature", "properties": {"norad_id": 30008, "name": "FENGYUN 1C DEB", "group": "fengyun-1c-debris", "lat": 80.59328535795086, "lon": -126.72509308966126, "alt_km": 650.6636109231476, "timestamp": "2025-12-26T08:37:54.853449+00:00", "meta": {"OBJECT_NAME": "FENGYUN 1C DEB", "OBJECT_ID": "1999-025MH", "EPOCH": "2025-12-25T21:00:48.836736", "MEAN_MOTION": 14.66564878, "ECCENTRICITY": 0.00396444, "INCLINATION": 99.3705, "RA_OF_ASC_NODE": 318.0971, "ARG_OF_PERICENTER": 151.1046, "MEAN_ANOMALY": 264.1424, "EPHEMERIS_TYPE": 0, "CLASSIFICATION_TYPE": "U", "NORAD_CAT_ID": 30008, "ELEMENT_SET_NO": 999, "REV_AT_EPOCH": 99252, "BSTAR": 0.0020564697, "MEAN_MOTION_DOT": 0.00011501, "MEAN_MOTION_DDOT": 0}, "tle": {"line1": "1 30008U 99025MH  25359.87556524  .00011501  00000+0  20565-2 0  9999", "line2": "2 30008  99.3705 318.0971 0039644 151.1046 264.1424 14.66564878992524"}}, "geometry": {"type": "Point", "coordinates": [-126.72509308966126, 80.59328535795086]}}, {"type": "Feature", "properties": {"norad_id": 30009, "name": "FENGYUN 1C DEB", "group": "fengyun-1c-debris", "lat": 14.879345035031292, "lon": 52.7747360262835, "alt_km": 868.1867233739913, "timestamp": "2025-12-26T08:37:54.853459+00:00", "meta": {"OBJECT_NAME": "FENGYUN 1C DEB", "OBJECT_ID": "1999-025MJ", "EPOCH": "2025-12-25T17:10:38.850816", "MEAN_MOTION": 14.04894319, "ECCENTRICITY": 0.00644938, "INCLINATION": 99.0142, "RA_OF_ASC_NODE": 54.5524, "ARG_OF_PERICENTER": 298.2788, "MEAN_ANOMALY": 61.1881, "EPHEMERIS_TYPE": 0, "CLASSIFICATION_TYPE": "U", "NORAD_CAT_ID": 30009, "ELEMENT_SET_NO": 999, "REV_AT_EPOCH": 96665, "BSTAR": 0.00099752679, "MEAN_MOTION_DOT": 1.588e-05, "MEAN_MOTION_DDOT": 0}, "tle": {"line1": "1 30009U 99025MJ  25359.71572744  .00001588  00000+0  99753-3 0  9995", "line2": "2 30009  99.0142  54.5524 0064493 298.2788  61.1881 14.04894319966654"}}, "geometry": {"type": "Point", "coordinates": [52.7747360262835, 14.879345035031292]}}, {"type": "Feature", "properties": {"norad_id": 30010, "name": "FENGYUN 1C DEB", "group": "fengyun-1c-debris", "lat": 67.82638244549317, "lon": 36.045189334125325, "alt_km": 775.146159228465, "timestamp": "2025-12-26T08:37:54.853469+00:00", "meta": {"OBJECT_NAME": "FENGYUN 1C DEB", "OBJECT_ID": "1999-025MK", "EPOCH": "2025-12-25T12:02:51.464256", "MEAN_MOTION": 14.24995538, "ECCENTRICITY": 0.0073246, "INCLINATION": 99.0695, "RA_OF_ASC_NODE": 192.0851, "ARG_OF_PERICENTER": 172.6102, "MEAN_ANOMALY": 220.9824, "EPHEMERIS_TYPE": 0, "CLASSIFICATION_TYPE": "U", "NORAD_CAT_ID": 30010, "ELEMENT_SET_NO": 999, "REV_AT_EPOCH": 98442, "BSTAR": 0.00012459, "MEAN_MOTION_DOT": 2.53e-06, "MEAN_MOTION_DDOT": 0}, "tle": {"line1": "1 30010U 99025MK  25359.50198454  .00000253  00000+0  12459-3 0  9992", "line2": "2 30010  99.0695 192.0851 0073246 172.6102 220.9824 14.24995538984425"}}, "geometry": {"type": "Point", "coordinates": [36.045189334125325, 67.82638244549317]}}, {"type": "Feature", "properties": {"norad_id": 30012, "name": "FENGYUN 1C DEB", "group": "fengyun-1c-debris", "lat": -55.3933279656766, "lon": 67.7119745964454, "alt_km": 1047.9306833686132, "timestamp": "2025-12-26T08:37:54.853479+00:00", "meta": {"OBJECT_NAME": "FENGYUN 1C DEB", "OBJECT_ID": "1999-025MM", "EPOCH": "2025-12-26T02:15:33.467904", "MEAN_MOTION": 13.85774697, "ECCENTRICITY": 0.0137243, "INCLINATION": 99.4624, "RA_OF_ASC_NODE": 53.4577, "ARG_OF_PERICENTER": 110.3313, "MEAN_ANOMALY": 309.6175, "EPHEMERIS_TYPE": 0, "CLASSIFICATION_TYPE": "U", "NORAD_CAT_ID": 30012, "ELEMENT_SET_NO": 999, "REV_AT_EPOCH": 95733, "BSTAR": 0.0002494, "MEAN_MOTION_DOT": 2.63e-06, "MEAN_MOTION_DDOT": 0}, "tle": {"line1": "1 30012U 99025MM  25360.09413736  .00000263  00000+0  24940-3 0  9992", "line2": "2 30012  99.4624  53.4577 0137243 110.3313 309.6175 13.85774697957330"}}, "geometry": {"type": "Point", "coordinates": [67.7119745964454, -55.3933279656766]}}]}